NORAD_CAT_ID,OBJECT_NAME,OBJECT_TYPE,EPOCH,MEAN_MOTION,ECCENTRICITY,INCLINATION,RA_OF_ASC_NODE,ARG_OF_PERICENTER,MEAN_ANOMALY,BSTAR,MEAN_MOTION_DOT,MEAN_MOTION_DDOT,TLE_LINE0,TLE_LINE1,TLE_LINE2,SEMIMAJOR_AXIS,PERIOD,APOGEE,PERIGEE,DECAYED
53640.0,STARLINK-4597,PAYLOAD,2024-06-10 19:45:30,15.08848949,0.0001385,53.2163,202.8763,86.0977,274.0173,0.00034995,5.287e-05,0.0,0 STARLINK-4597,1 53640U 22104BE  24162.82326791  .00005287  00000-0  34995-3 0  9995,2 53640  53.2163 202.8763 0001385  86.0977 274.0173 15.08848949100081,6917.853,95.437,540.676,538.76,0.0
53640.0,STARLINK-4597,PAYLOAD,2024-06-11 10:03:58,15.08841279,0.0001434,53.216,200.2003,85.2209,274.8947,0.0001874,2.696e-05,0.0,0 STARLINK-4597,1 53640U 22104BE  24163.41943195  .00002696  00000-0  18740-3 0  9995,2 53640  53.2160 200.2003 0001434  85.2209 274.8947 15.08841279100177,6917.876,95.437,540.734,538.749,0.0
53640.0,STARLINK-4597,PAYLOAD,2024-06-12 01:57:49,15.08848991,0.000127,53.2154,197.2263,89.4163,270.6974,0.00022329,3.268e-05,0.0,0 STARLINK-4597,1 53640U 22104BE  24164.08182652  .00003268  00000-0  22329-3 0  9996,2 53640  53.2154 197.2263 0001270  89.4163 270.6974 15.08848991 99254,6917.853,95.437,540.596,538.839,0.0
53640.0,STARLINK-4597,PAYLOAD,2024-06-12 06:43:59,15.08833992,0.000155,53.2168,196.3347,88.6802,271.4367,-5.8764e-05,-1.223e-05,0.0,0 STARLINK-4597,1 53640U 22104BE  24164.28055470 -.00001223  00000-0 -58764-4 0  9999,2 53640  53.2168 196.3347 0001550  88.6802 271.4367 15.08833992100303,6917.899,95.438,540.836,538.691,0.0
53640.0,STARLINK-4597,PAYLOAD,2024-06-12 11:30:09,15.08836796,0.0001335,53.2163,195.4412,101.091,259.0232,-3.0824e-05,-7.78e-06,0.0,0 STARLINK-4597,1 53640U 22104BE  24164.47927440 -.00000778  00000-0 -30824-4 0  9996,2 53640  53.2163 195.4412 0001335 101.0910 259.0232 15.08836796 99318,6917.89,95.438,540.679,538.832,0.0
53640.0,STARLINK-4597,PAYLOAD,2024-06-13 08:10:10,15.08840489,0.0001222,53.2156,191.5767,90.4434,269.6699,0.00020214,2.931e-05,0.0,0 STARLINK-4597,1 53640U 22104BE  24165.34039481  .00002931  00000-0  20214-3 0  9994,2 53640  53.2156 191.5767 0001222  90.4434 269.6699 15.08840489100464,6917.879,95.438,540.589,538.899,0.0
53640.0,STARLINK-4597,PAYLOAD,2024-06-13 19:17:51,15.08841502,0.0001339,53.2166,189.494,99.1804,260.934,0.00012982,1.779e-05,0.0,0 STARLINK-4597,1 53640U 22104BE  24165.80407385  .00001779  00000-0  12982-3 0  9999,2 53640  53.2166 189.4940 0001339  99.1804 260.9340 15.08841502100532,6917.876,95.437,540.667,538.814,0.0
53640.0,STARLINK-4597,PAYLOAD,2024-06-14 08:00:57,15.08838055,0.0001254,53.2158,187.116,90.9858,269.1278,0.00015385,2.161e-05,0.0,0 STARLINK-4597,1 53640U 22104BE  24166.33399658  .00002161  00000-0  15385-3 0  9997,2 53640  53.2158 187.1160 0001254  90.9858 269.1278 15.08838055100615,6917.886,95.438,540.619,538.884,0.0
53640.0,STARLINK-4597,PAYLOAD,2024-06-15 07:51:43,15.08844693,0.0001226,53.2166,182.6555,90.6446,269.4687,7.0356e-05,8.32e-06,0.0,0 STARLINK-4597,1 53640U 22104BE  24167.32759211  .00000832  00000-0  70356-4 0  9995,2 53640  53.2166 182.6555 0001226  90.6446 269.4687 15.08844693100769,6917.866,95.437,540.579,538.883,0.0
53640.0,STARLINK-4597,PAYLOAD,2024-06-16 07:42:31,15.08839665,0.0001214,53.2164,178.1942,88.5349,271.5782,7.6511e-05,9.3e-06,0.0,0 STARLINK-4597,1 53640U 22104BE  24168.32119431  .00000930  00000-0  76511-4 0  9998,2 53640  53.2164 178.1942 0001214  88.5349 271.5782 15.08839665100912,6917.881,95.438,540.586,538.907,0.0
53640.0,STARLINK-4597,PAYLOAD,2024-06-16 17:14:49,15.08841852,0.0001207,53.2164,176.4098,87.2834,272.8296,6.9832e-05,8.24e-06,0.0,0 STARLINK-4597,1 53640U 22104BE  24168.71863288  .00000824  00000-0  69832-4 0  9997,2 53640  53.2164 176.4098 0001207  87.2834 272.8296 15.08841852100973,6917.875,95.437,540.575,538.905,0.0
53640.0,STARLINK-4597,PAYLOAD,2024-06-17 17:05:37,15.08837119,0.0001332,53.2176,171.9505,89.3072,270.8073,3.103e-05,2.06e-06,0.0,0 STARLINK-4597,1 53640U 22104BE  24169.71223827  .00000206  00000-0  31030-4 0  9990,2 53640  53.2176 171.9505 0001332  89.3072 270.8073 15.08837119100102,6917.889,95.438,540.676,538.833,0.0
53640.0,STARLINK-4597,PAYLOAD,2024-06-18 08:59:28,15.0884056,0.0001316,53.2171,168.9772,92.6697,267.4446,8.352e-05,1.042e-05,0.0,0 STARLINK-4597,1 53640U 22104BE  24170.37463520  .00001042  00000-0  83520-4 0  9990,2 53640  53.2171 168.9772 0001316  92.6697 267.4446 15.08840560101225,6917.879,95.438,540.654,538.833,0.0
53640.0,STARLINK-4597,PAYLOAD,2024-06-18 16:56:23,15.08843838,0.0001296,53.217,167.4897,87.5732,272.5408,8.4645e-05,1.06e-05,0.0,0 STARLINK-4597,1 53640U 22104BE  24170.70583265  .00001060  00000-0  84645-4 0  9995,2 53640  53.2170 167.4897 0001296  87.5732 272.5408 15.08843838100254,6917.869,95.437,540.63,538.837,0.0
53640.0,STARLINK-4597,PAYLOAD,2024-06-19 04:04:06,15.08834823,0.0001288,53.2166,165.4079,86.1103,274.0037,6.7969e-05,7.94e-06,0.0,0 STARLINK-4597,1 53640U 22104BE  24171.16951957  .00000794  00000-0  67969-4 0  9996,2 53640  53.2166 165.4079 0001288  86.1103 274.0037 15.08834823100324,6917.896,95.438,540.652,538.87,0.0
53640.0,STARLINK-4597,PAYLOAD,2024-06-19 08:50:15,15.08838656,0.0001319,53.2167,164.5158,85.2768,274.8375,7.7138e-05,9.4e-06,0.0,0 STARLINK-4597,1 53640U 22104BE  24171.36823736  .00000940  00000-0  77138-4 0  9993,2 53640  53.2167 164.5158 0001319  85.2768 274.8375 15.08838656101372,6917.884,95.438,540.662,538.837,0.0
53640.0,STARLINK-4597,PAYLOAD,2024-06-19 16:47:11,15.0884,0.000134,53.217,163.0295,86.5271,273.5875,8.1574e-05,1.011e-05,0.0,0 STARLINK-4597,1 53640U 22104BE  24171.69943658  .00001011  00000-0  81574-4 0  9994,2 53640  53.2170 163.0295 0001340  86.5271 273.5875 15.08840000101422,6917.88,95.438,540.672,538.818,0.0
53640.0,STARLINK-4597,PAYLOAD,2024-06-20 08:41:02,15.08839815,0.0001475,53.2176,160.0564,86.6928,273.4233,3.0562e-05,1.98e-06,0.0,0 STARLINK-4597,1 53640U 22104BE  24172.36183896  .00000198  00000-0  30562-4 0  9995,2 53640  53.2176 160.0564 0001475  86.6928 273.4233 15.08839815101523,6917.881,95.438,540.766,538.726,0.0
53640.0,STARLINK-4597,PAYLOAD,2024-06-20 16:37:58,15.08841781,0.0001475,53.2176,158.5694,86.6747,273.4414,3.1217e-05,2.09e-06,0.0,0 STARLINK-4597,1 53640U 22104BE  24172.69303760  .00000209  00000-0  31217-4 0  9996,2 53640  53.2176 158.5694 0001475  86.6747 273.4414 15.08841781100556,6917.875,95.437,540.76,538.72,0.0
53640.0,STARLINK-4597,PAYLOAD,2024-06-21 08:31:49,15.0883974,0.0001425,53.2174,155.5944,93.1044,267.0111,4.639e-05,4.5e-06,0.0,0 STARLINK-4597,1 53640U 22104BE  24173.35543815  .00000450  00000-0  46390-4 0  9993,2 53640  53.2174 155.5944 0001425  93.1044 267.0111 15.08839740101676,6917.881,95.438,540.732,538.76,0.0
53640.0,STARLINK-4597,PAYLOAD,2024-06-22 03:36:27,15.08840782,0.0001445,53.2179,152.0258,93.7173,266.3985,7.69e-05,9.36e-06,0.0,0 STARLINK-4597,1 53640U 22104BE  24174.15031671  .00000936  00000-0  76900-4 0  9993,2 53640  53.2179 152.0258 0001445  93.7173 266.3985 15.08840782100771,6917.878,95.438,540.743,538.743,0.0
53640.0,STARLINK-4597,PAYLOAD,2024-06-22 05:11:50,15.08841479,0.0001399,53.2176,151.7281,98.3032,261.8119,7.1097e-05,8.44e-06,0.0,0 STARLINK-4597,1 53640U 22104BE  24174.21655614  .00000844  00000-0  71097-4 0  9999,2 53640  53.2176 151.7281 0001399  98.3032 261.8119 15.08841479101801,6917.876,95.437,540.709,538.773,0.0
53640.0,STARLINK-4597,PAYLOAD,2024-06-22 22:41:05,15.08838671,0.0001403,53.2176,148.4573,93.7156,266.3997,5.4593e-05,5.81e-06,0.0,0 STARLINK-4597,1 53640U 22104BE  24174.94519876  .00000581  00000-0  54593-4 0  9998,2 53640  53.2176 148.4573 0001403  93.7156 266.3997 15.08838671101916,6917.884,95.438,540.72,538.779,0.0
53640.0,STARLINK-4597,PAYLOAD,2024-06-23 05:02:37,15.08836704,0.0001356,53.2175,147.2674,96.1922,263.9225,1.9206e-05,1.8e-07,0.0,0 STARLINK-4597,1 53640U 22104BE  24175.21016108  .00000018  00000-0  19206-4 0  9996,2 53640  53.2175 147.2674 0001356  96.1922 263.9225 15.08836704100932,6917.89,95.438,540.694,538.817,0.0
53640.0,STARLINK-4597,PAYLOAD,2024-06-23 08:13:24,15.08836548,0.0001381,53.2176,146.6733,98.0782,262.0367,1.3295e-05,-7.6e-07,0.0,0 STARLINK-4597,1 53640U 22104BE  24175.34264155 -.00000076  00000-0  13295-4 0  9994,2 53640  53.2176 146.6733 0001381  98.0782 262.0367 15.08836548101973,6917.891,95.438,540.711,538.801,0.0
53640.0,STARLINK-4597,PAYLOAD,2024-06-23 22:31:52,15.08838149,0.0001381,53.2178,143.9971,98.8368,261.2781,2.2588e-05,7.2e-07,0.0,0 STARLINK-4597,1 53640U 22104BE  24175.93880076  .00000072  00000-0  22588-4 0  9995,2 53640  53.2178 143.9971 0001381  98.8368 261.2781 15.08838149102068,6917.886,95.438,540.706,538.796,0.0
53640.0,STARLINK-4597,PAYLOAD,2024-06-24 08:04:11,15.08839344,0.0001387,53.2177,142.2128,98.2565,261.8584,3.111e-05,2.07e-06,0.0,0 STARLINK-4597,1 53640U 22104BE  24176.33624015  .00000207  00000-0  31110-4 0  9990,2 53640  53.2177 142.2128 0001387  98.2565 261.8584 15.08839344101101,6917.882,95.438,540.707,538.788,0.0
53640.0,STARLINK-4597,PAYLOAD,2024-06-25 04:44:12,15.08832385,0.000137,53.2173,138.3471,94.7114,265.4034,3.4083e-05,2.54e-06,0.0,0 STARLINK-4597,1 53640U 22104BE  24177.19736698  .00000254  00000-0  34083-4 0  9990,2 53640  53.2173 138.3471 0001370  94.7114 265.4034 15.08832385101239,6917.904,95.438,540.716,538.821,0.0
53640.0,STARLINK-4597,PAYLOAD,2024-06-26 04:34:59,15.08843368,0.0001352,53.2167,133.8861,91.4401,268.6746,9.3978e-05,1.208e-05,0.0,0 STARLINK-4597,1 53640U 22104BE  24178.19096090  .00001208  00000-0  93978-4 0  9994,2 53640  53.2167 133.8861 0001352  91.4401 268.6746 15.08843368101382,6917.87,95.437,540.67,538.8,0.0
53640.0,STARLINK-4597,PAYLOAD,2024-06-27 04:25:46,15.08841254,0.0001243,53.2174,129.4247,124.4648,235.6462,7.7109e-05,9.4e-06,0.0,0 STARLINK-4597,1 53640U 22104BE  24179.18456125  .00000940  00000-0  77109-4 0  9993,2 53640  53.2174 129.4247 0001243 124.4648 235.6462 15.08841254101536,6917.877,95.437,540.601,538.882,0.0
